ISS (ZARYA)             
1 25544U 98067A   18295.55771631  .00000879  00000-0  20706-4 0  9993
2 25544  51.6422 103.9899 0003680 322.0875 147.2812 15.53847658138329
FLOCK 2E'-14            
1 41762U 98067KJ  18295.19020198  .01474943  16792-2  11433-2 0  9998
2 41762  51.6187  35.2468 0011448 357.4341   2.6615 16.14423366120259
FLOCK 2E'-15            
1 41764U 98067KL  18295.20403576  .00294824  46243-4  65686-3 0  9990
2 41764  51.6261  40.6659 0009186 342.7806  17.2890 15.97274363120141
TIANGONG-2              
1 41765U 16057A   18295.12437216  .00003285  00000-0  44464-4 0  9997
2 41765  42.7839 305.4622 0006372  51.1025 359.2396 15.59778669119845
FLOCK 2E'-18            
1 41769U 98067KM  18295.18837956  .00401448  77285-4  88764-3 0  9999
2 41769  51.6241  40.5704 0010095 348.5004  11.5772 15.97345188120149
BANXING-2               
1 41834U 16057H   18295.74169547  .00023139  00000-0  10314-3 0  9997
2 41834  42.7793 231.5756 0011689 162.3151 276.1602 15.83691496114784
ITF-2                   
1 41932U 98067KU  18295.32685013  .00105794  00000-0  36061-3 0  9997
2 41932  51.6287  40.7529 0005590 337.9462  22.1302 15.88959390100884
AOBA-VELOX 3            
1 41935U 98067KX  18295.51265520  .00554676  17106-3  55121-3 0  9991
2 41935  51.6271  27.5279 0009726 350.1036   9.9785 16.10506273101179
LEMUR-2-REDFERN-GOES    
1 42059U 98067LA  18295.15281024  .00153679  20129-4  42976-3 0  9998
2 42059  51.6321  43.2962 0006762 340.8979  19.1774 15.93306841 93323
LEMUR-2-TRUTNAHD        
1 42069U 98067LE  18295.19129532  .00260391  39568-4  49501-3 0  9996
2 42069  51.6236  38.1486 0008003 344.8993  15.1777 16.00130141 93374
HAVELSAT                
1 42700U 98067LH  18294.79383160  .00053858  00000-0  28066-3 0  9998
2 42700  51.6287  63.6068 0003730 353.8637   6.2319 15.80359245 81979
CXBN-2                  
1 42704U 98067LM  18294.72646134  .00049964  00000-0  26790-3 0  9993
2 42704  51.6318  65.4530 0003073 309.5404  50.5325 15.79767452 81860
PHOENIX                 
1 42706U 98067LP  18294.88267437  .00032030  00000-0  21225-3 0  9991
2 42706  51.6322  68.0334 0001981 306.9060  53.1758 15.75208158 81838
X-CUBESAT               
1 42707U 98067LQ  18294.82325759  .00078706  00000-0  37602-3 0  9994
2 42707  51.6298  62.2068 0003407 316.2552  43.8180 15.82093532 81893
QBEE50-LTU-OC           
1 42708U 98067LR  18295.18813080  .00067574  00000-0  35649-3 0  9994
2 42708  51.6301  62.5051 0002313 323.4741  36.6102 15.80003073 81881
ALTAIR PATHFINDER       
1 42711U 98067LS  18294.98550260  .00018347  00000-0  16587-3 0  9997
2 42711  51.6342  80.0438 0003472 297.4361  62.6282 15.68160007 81345
SHARC                   
1 42712U 98067LT  18294.96357287  .00037314  00000-0  29523-3 0  9999
2 42712  51.6347  80.7142 0002623 296.4860  63.5868 15.70960069 81574
ZA-AEROSAT              
1 42713U 98067LU  18294.83631544  .00032330  00000-0  22878-3 0  9996
2 42713  51.6325  72.2185 0002680 295.3075  64.7646 15.73676146 81438
CSUNSAT 1               
1 42715U 98067LW  18294.97295503  .00036863  00000-0  24585-3 0  9996
2 42715  51.6336  70.1460 0003759 297.7776  62.2842 15.74982301 81476
SPACECUBE               
1 42717U 98067LY  18294.78293426  .00053821  00000-0  28770-3 0  9992
2 42717  51.6257  64.9787 0003103 347.5496  12.5429 15.79803196 80892
HOOPOE                  
1 42718U 98067LZ  18295.16284597  .00110318  00000-0  40519-3 0  9995
2 42718  51.6270  56.1932 0004685 333.3323  26.7440 15.87446725 81049
NJUST-1                 
1 42722U 98067MB  18294.92523988  .00028574  00000-0  21619-3 0  9995
2 42722  51.6338  74.3567 0004611 345.4783  14.6082 15.72161354 80489
UNSW-ECO                
1 42723U 98067MC  18294.78416943  .00132550  17627-4  41588-3 0  9996
2 42723  51.6370  56.7866 0006468 336.3674  23.7034 15.91172059 80687
LILACSAT-1              
1 42725U 98067ME  18295.21153844  .00039720  00000-0  24099-3 0  9991
2 42725  51.6375  67.0920 0003759 345.4506  77.6662 15.77109701 80510
NSIGHT-1                
1 42726U 98067MF  18294.87851329  .00011077  00000-0  12046-3 0  9990
2 42726  51.6375  87.6914 0004612 349.2134  10.8761 15.64012858 80218
SNUSAT-1                
1 42727U 98067MG  18294.89873295  .00043673  00000-0  26611-3 0  9999
2 42727  51.6318  68.8044 0005771 317.4148  42.6404 15.76956075 80421
I-INSPIRE II            
1 42731U 98067ML  18294.70447900  .00159502  20798-4  44827-3 0  9992
2 42731  51.6318  55.3635 0007570 320.5628  39.4828 15.93186318 80473
POLYITAN-2-SAU          
1 42732U 98067MM  18295.16664593  .00071171  00000-0  34652-3 0  9993
2 42732  51.6313  61.5660 0005843 310.8684  49.1812 15.81709661 80437
SNUSAT-1B               
1 42733U 98067MN  18294.79064472  .00046983  00000-0  26752-3 0  9997
2 42733  51.6298  67.3510 0005654 310.0221  50.0284 15.78447426 80323
EXALTA-1                
1 42734U 98067MP  18295.18487628  .00276652  42165-4  60326-3 0  9999
2 42734  51.6220  50.8901 0009028 335.5946  24.4635 15.97676566 80522
BEEAGLESAT              
1 42736U 98067MR  18294.81667910  .00038482  00000-0  24991-3 0  9997
2 42736  51.6319  70.5562 0004947 340.0329  20.0476 15.75567762 80344
ASTERIA                 
1 43020U 98067NH  18294.93065110  .00010687  00000-0  12472-3 0  9999
2 43020  51.6409  96.3609 0002053 287.3344  72.7426 15.62230106 52281
DELLINGR (RBLE)         
1 43021U 98067NJ  18294.97722575  .00007450  00000-0  99343-4 0  9996
2 43021  51.6382  99.6216 0001899 273.7175  86.3600 15.59237476 52244
OSIRIS-3U               
1 43027U 98067NL  18295.03511763  .00057136  00000-0  40631-3 0  9996
2 43027  51.6347  84.9220 0003848 275.7397  84.3163 15.73293828 52327
1KUNS-PF                
1 43466U 98067NP  18295.45426152  .00015975  00000-0  21119-3 0  9991
2 43466  51.6383 101.2974 0000570 204.6608 155.4357 15.58508017 25527
UBAKUSAT                
1 43467U 98067NQ  18295.48733924  .00009827  00000-0  13666-3 0  9990
2 43467  51.6382 101.5214 0002468 237.3022 122.7733 15.57674029 25530
BATSU-CS1 (IRAZU)       
1 43468U 98067NR  18294.71694473  .00013803  00000-0  17914-3 0  9990
2 43468  51.6382 104.6243 0000687 189.1098 170.9882 15.59135959125408
SOYUZ-MS 09             
1 43493U 18051A   18294.51958020  .00001258  00000-0  26499-4 0  9992
2 43493  51.6423 109.1632 0003568 318.9032  99.4463 15.53846280138162
PROGRESS-MS 09          
1 43537U 18058A   18294.51958020  .00001258  00000-0  26499-4 0  9998
2 43537  51.6423 109.1632 0003568 318.9032  99.4463 15.53846280138161
CUBERRT                 
1 43546U 98067NU  18294.79504481  .00010985  00000-0  15824-3 0  9990
2 43546  51.6384 106.6376 0005411 308.4674  51.5832 15.56567541 15536
TEMPEST-D               
1 43547U 98067NV  18295.07564305  .00003563  00000-0  58059-4 0  9996
2 43547  51.6382 105.5096 0005437 312.8514  47.2020 15.55554862 15253
RAINCUBE                
1 43548U 98067NW  18294.48638340  .00008449  00000-0  12522-3 0  9994
2 43548  51.6382 108.3247 0005351 316.5911  43.4659 15.56151407 15615
HALOSAT                 
1 43549U 98067NX  18294.48681038  .00007639  00000-0  11393-3 0  9992
2 43549  51.6381 108.3279 0005364 319.1924  40.8665 15.56140469 15172
1998-067NY              
1 43550U 98067NY  18295.10085832  .00014857  00000-0  20772-3 0  9995
2 43550  51.6376 104.9269 0004243 333.7603  26.3173 15.57062823 15733
ENDUROSAT ONE           
1 43551U 98067NZ  18294.52754910  .00008994  00000-0  13042-3 0  9998
2 43551  51.6378 107.8495 0005820 325.1168  34.9441 15.56655375 15598
EQUISAT                 
1 43552U 98067PA  18294.85436604  .00009275  00000-0  13536-3 0  9993
2 43552  51.6379 106.2838 0006127 327.5303  32.5311 15.56431550 15601
1998-067PB              
1 43553U 98067PB  18295.05327205  .00007490  00000-0  11162-3 0  9993
2 43553  51.6384 105.3649 0006331 329.6717  30.3908 15.56193870 15683
1998-067PC              
1 43554U 98067PC  18294.52433549  .00009324  00000-0  13459-3 0  9993
2 43554  51.6380 107.8297 0005971 325.6281  34.4323 15.56727336 15133
AEROCUBE 12A            
1 43556U 18046C   18294.54369687  .00001774  00000-0  76912-4 0  9992
2 43556  51.6420 127.9227 0007974 293.3507  66.6633 15.27933047 14836
AEROCUBE 12B            
1 43557U 18046D   18294.54447615  .00001635  00000-0  71996-4 0  9994
2 43557  51.6420 127.9274 0007997 293.2349  66.7788 15.27897553 14784
LEMUR-2-VU              
1 43558U 18046E   18294.79498419  .00001087  00000-0  51761-4 0  9999
2 43558  51.6424 126.6039 0007306 296.8882  63.1351 15.28184180 14861
LEMUR-2-ALEXANDER       
1 43559U 18046F   18294.79463058  .00001153  00000-0  54085-4 0  9997
2 43559  51.6425 126.6016 0007303 296.9763  63.0471 15.28191702 14640
LEMUR-2-TOMHENDERSON    
1 43560U 18046G   18294.60051140  .00001310  00000-0  59784-4 0  9990
2 43560  51.6421 127.5528 0007840 310.9291  49.1009 15.28157885 14832
LEMUR-2-YUASA           
1 43561U 18046H   18294.53486345  .00001497  00000-0  66476-4 0  9994
2 43561  51.6422 127.8648 0007835 310.6624  49.3674 15.28171752 14380
SIRIUSSAT-1             
1 43595U 98067PG  18295.16825792  .00010763  00000-0  16057-3 0  9990
2 43595  51.6379 105.3724 0003250 285.1536  74.9095 15.55639800 10491
SIRIUSSAT-2             
1 43596U 98067PH  18295.17431868  .00010868  00000-0  16293-3 0  9997
2 43596  51.6389 105.4197 0003898 289.4227  70.6342 15.55491309 10498
TANUSHA-3               
1 43597U 98067PJ  18294.52724360  .00009389  00000-0  14059-3 0  9992
2 43597  51.6367 108.5860 0003275 299.5737  60.4928 15.55716209 10398
1998-067PK              
1 43598U 98067PK  18295.17131096  .00013836  00000-0  20386-3 0  9995
2 43598  51.6369 105.3890 0003560 300.6884  59.3756 15.55704045 10495
HTV-7 (KOUNOTORI 7)     
1 43630U 18073A   18294.51958020  .00001258  00000-0  26499-4 0  9999
2 43630  51.6423 109.1632 0003568 318.9032  99.4463 15.53846280138165
1998-067PN              
1 43638U 98067PN  18293.60254316  .00005206  00000-0  84420-4 0  9999
2 43638  51.6422 113.6629 0002038 256.0227 103.9437 15.54590002  2168
1998-067PP              
1 43639U 98067PP  18293.98725668  .00006686  00000-0  10585-3 0  9997
2 43639  51.6399 111.7313 0004856 274.9095  84.9745 15.54727601  2238
STARS-ME                
1 43640U 98067PQ  18294.43702190  .00005368  00000-0  86419-4 0  9991
2 43640  51.6398 109.4874 0005165 273.0415  86.7013 15.54723538  2306
